ONEWEB-0385             
1 49311U 21090AJ  23269.60318880  .00000052  00000+0  95708-4 0  9995
2 49311  87.9165 112.4615 0001461  97.0925 263.0375 13.20772909 98519
ONEWEB-0386             
1 49312U 21090AK  23269.62001716  .00000014  00000+0  26724-5 0  9996
2 49312  87.9158 112.4704 0001638  94.8161 265.3159 13.20770502 98538
ONEWEB-0387             
1 49313U 21090AL  23269.60530178  .00000053  00000+0  98635-4 0  9996
2 49313  87.9164 112.5185 0001216  83.6861 276.4411 13.20768930 98531
ONEWEB-0388             
1 49314U 21090AM  23269.69152514  .00000034  00000+0  53562-4 0  9999
2 49314  87.9237 142.9078 0001833  80.0500 280.0840 13.19724822 95249
ONEWEB-0389             
1 50469U 21132A   23269.88981940 -.00000012  00000+0 -62923-4 0  9992
2 50469  87.9251 203.4322 0001385  75.3158 284.8127 13.17651962 87143
ONEWEB-0390             
1 50470U 21132B   23269.89193713  .00000075  00000+0  16097-3 0  9995
2 50470  87.9253 203.4384 0001629  60.4881 299.6412 13.17652686 87149
ONEWEB-0391             
1 50471U 21132C   23269.89404219  .00000092  00000+0  20452-3 0  9991
2 50471  87.9251 203.4085 0001662  76.7223 283.4094 13.17648635 87149
ONEWEB-0392             
1 50472U 21132D   23269.84762630 -.00000182  00000+0 -50097-3 0  9991
2 50472  87.9241 203.4550 0001566  72.7624 287.3679 13.17648383 87175
